STARLINK-1548           
1 46054U 20055AD  26068.50002314  .00036163  00000+0  12285-2 0  9996
2 46054  53.1586 114.7947 0001263  87.1327 321.8902 15.30165066  5825
ASRTU-1 (AO-123)        
1 61781U 24199AY  26068.55078395  .00010125  00000+0  30873-3 0  9994
2 61781  97.3152 298.1379 0012816 310.8975  49.1157 15.34061144118648
